STARLINK-31544          
1 59399U 24064B   26068.04493470  .00000291  00000+0  20080-4 0  9999
2 59399  43.0027  60.1166 0001292 271.7912  88.2792 15.27581907109120
HAWK-11A                
1 62382U 24247F   26068.51231358  .00009457  00000+0  34106-3 0  9991
2 62382  44.9941 114.3328 0005466 327.3713  32.6832 15.28849427 67741
